ONEWEB-0311             
1 49097U 21075Y   26148.65612426  .00000017  00000+0  11542-4 0  9991
2 49097  87.9150   9.7471 0002252  89.3708 270.7681 13.17647239231050
ONEWEB-0312             
1 49098U 21075Z   26148.97505685 -.00000033  00000+0 -11871-3 0  9999
2 49098  87.9147   9.6947 0001914  95.5894 264.5456 13.17648131231078
ONEWEB-0313             
1 49099U 21075AA  26149.05591351  .00000052  00000+0  10183-3 0  9999
2 49099  87.9144   9.6849 0001912  87.7467 272.3883 13.17650935231070
ONEWEB-0314             
1 49100U 21075AB  26148.64263049 -.00000028  00000+0 -10603-3 0  9998
2 49100  87.9158   9.7373 0001952  96.2584 263.8770 13.17649075230993
ONEWEB-0315             
1 49101U 21075AC  26148.99673841 -.00000077  00000+0 -25063-3 0  9992
2 49101  87.8956 354.4609 0002189  87.3653 272.7726 13.12443621232651
ONEWEB-0316             
1 49102U 21075AD  26148.96206206  .00000079  00000+0  16741-3 0  9990
2 49102  87.9156 339.2835 0001893  90.0018 270.1331 13.18685456234672
ONEWEB-0317             
1 49103U 21075AE  26149.00012699  .00000023  00000+0  27631-4 0  9998
2 49103  87.8957 354.4837 0001048  88.6846 271.4402 13.12443683232675
ONEWEB-0318             
1 49104U 21075AF  26148.95868737  .00000063  00000+0  12607-3 0  9994
2 49104  87.9166 339.2839 0002096  89.5998 270.5374 13.18685613234637
ONEWEB-0319             
1 49105U 21075AG  26149.03747794 -.00000214  00000+0 -58431-3 0  9999
2 49105  87.9147   9.6771 0002353  84.2776 275.8624 13.17648697231084
ONEWEB-0323             
1 49106U 21075AH  26148.98148943 -.00000359  00000+0 -10343-2 0  9993
2 49106  87.8957 354.4687 0002341  91.6519 268.4878 13.12442374232038
ONEWEB-0329             
1 49107U 21075AJ  26149.04591676  .00000107  00000+0  24258-3 0  9997
2 49107  87.9149   9.6758 0001861  89.8149 270.3196 13.17651011231067
ONEWEB-0330             
1 49108U 21075AK  26148.99376897  .00000255  00000+0  62322-3 0  9995
2 49108  87.9154   9.7064 0001747  93.5890 266.5442 13.17648555231096
ONEWEB-0292             
1 49186U 21083A   26148.96879356 -.00000245  00000+0 -70619-3 0  9994
2 49186  87.8931 324.0687 0001978  91.4979 268.6377 13.13468595228400
ONEWEB-0303             
1 49187U 21083B   26148.95531847  .00000067  00000+0  13742-3 0  9998
2 49187  87.9161 339.2844 0001991  90.2067 269.9293 13.18685846227449
ONEWEB-0306             
1 49188U 21083C   26149.02107688  .00000050  00000+0  94869-4 0  9992
2 49188  87.9168 339.2580 0001613  90.6084 269.5233 13.18685937227494
ONEWEB-0307             
1 49189U 21083D   26148.96287740 -.00000160  00000+0 -47179-3 0  9998
2 49189  87.8942 324.0653 0001903  93.8573 266.2774 13.13468805228401
ONEWEB-0320             
1 49190U 21083E   26148.96542723  .00000051  00000+0  95483-4 0  9994
2 49190  87.9156 339.2892 0001759  88.8984 271.2350 13.18686910227446
