[{"OBJECT_NAME":"ONEWEB-0311","OBJECT_ID":"2021-075Y","EPOCH":"2026-05-28T15:44:49.136064","MEAN_MOTION":13.17647239,"ECCENTRICITY":0.0002252,"INCLINATION":87.915,"RA_OF_ASC_NODE":9.7471,"ARG_OF_PERICENTER":89.3708,"MEAN_ANOMALY":270.7681,"EPHEMERIS_TYPE":0,"CLASSIFICATION_TYPE":"U","NORAD_CAT_ID":49097,"ELEMENT_SET_NO":999,"REV_AT_EPOCH":23105,"BSTAR":1.1542e-05,"MEAN_MOTION_DOT":1.7e-07,"MEAN_MOTION_DDOT":0.0},{"OBJECT_NAME":"ONEWEB-0312","OBJECT_ID":"2021-075Z","EPOCH":"2026-05-28T23:24:04.911840","MEAN_MOTION":13.17648131,"ECCENTRICITY":0.0001914,"INCLINATION":87.9147,"RA_OF_ASC_NODE":9.6947,"ARG_OF_PERICENTER":95.5894,"MEAN_ANOMALY":264.5456,"EPHEMERIS_TYPE":0,"CLASSIFICATION_TYPE":"U","NORAD_CAT_ID":49098,"ELEMENT_SET_NO":999,"REV_AT_EPOCH":23107,"BSTAR":-0.00011871,"MEAN_MOTION_DOT":-3.3e-07,"MEAN_MOTION_DDOT":0.0},{"OBJECT_NAME":"ONEWEB-0313","OBJECT_ID":"2021-075AA","EPOCH":"2026-05-29T01:20:30.927264","MEAN_MOTION":13.17650935,"ECCENTRICITY":0.0001912,"INCLINATION":87.9144,"RA_OF_ASC_NODE":9.6849,"ARG_OF_PERICENTER":87.7467,"MEAN_ANOMALY":272.3883,"EPHEMERIS_TYPE":0,"CLASSIFICATION_TYPE":"U","NORAD_CAT_ID":49099,"ELEMENT_SET_NO":999,"REV_AT_EPOCH":23107,"BSTAR":0.00010183,"MEAN_MOTION_DOT":5.2e-07,"MEAN_MOTION_DDOT":0.0},{"OBJECT_NAME":"ONEWEB-0314","OBJECT_ID":"2021-075AB","EPOCH":"2026-05-28T15:25:23.274336","MEAN_MOTION":13.17649075,"ECCENTRICITY":0.0001952,"INCLINATION":87.9158,"RA_OF_ASC_NODE":9.7373,"ARG_OF_PERICENTER":96.2584,"MEAN_ANOMALY":263.877,"EPHEMERIS_TYPE":0,"CLASSIFICATION_TYPE":"U","NORAD_CAT_ID":49100,"ELEMENT_SET_NO":999,"REV_AT_EPOCH":23099,"BSTAR":-0.00010603,"MEAN_MOTION_DOT":-2.8e-07,"MEAN_MOTION_DDOT":0.0},{"OBJECT_NAME":"ONEWEB-0315","OBJECT_ID":"2021-075AC","EPOCH":"2026-05-28T23:55:18.198624","MEAN_MOTION":13.12443621,"ECCENTRICITY":0.0002189,"INCLINATION":87.8956,"RA_OF_ASC_NODE":354.4609,"ARG_OF_PERICENTER":87.3653,"MEAN_ANOMALY":272.7726,"EPHEMERIS_TYPE":0,"CLASSIFICATION_TYPE":"U","NORAD_CAT_ID":49101,"ELEMENT_SET_NO":999,"REV_AT_EPOCH":23265,"BSTAR":-0.00025063,"MEAN_MOTION_DOT":-7.7e-07,"MEAN_MOTION_DDOT":0.0},{"OBJECT_NAME":"ONEWEB-0316","OBJECT_ID":"2021-075AD","EPOCH":"2026-05-28T23:05:22.161984","MEAN_MOTION":13.18685456,"ECCENTRICITY":0.0001893,"INCLINATION":87.9156,"RA_OF_ASC_NODE":339.2835,"ARG_OF_PERICENTER":90.0018,"MEAN_ANOMALY":270.1331,"EPHEMERIS_TYPE":0,"CLASSIFICATION_TYPE":"U","NORAD_CAT_ID":49102,"ELEMENT_SET_NO":999,"REV_AT_EPOCH":23467,"BSTAR":0.00016741,"MEAN_MOTION_DOT":7.9e-07,"MEAN_MOTION_DDOT":0.0},{"OBJECT_NAME":"ONEWEB-0317","OBJECT_ID":"2021-075AE","EPOCH":"2026-05-29T00:00:10.971936","MEAN_MOTION":13.12443683,"ECCENTRICITY":0.0001048,"INCLINATION":87.8957,"RA_OF_ASC_NODE":354.4837,"ARG_OF_PERICENTER":88.6846,"MEAN_ANOMALY":271.4402,"EPHEMERIS_TYPE":0,"CLASSIFICATION_TYPE":"U","NORAD_CAT_ID":49103,"ELEMENT_SET_NO":999,"REV_AT_EPOCH":23267,"BSTAR":2.7631e-05,"MEAN_MOTION_DOT":2.3e-07,"MEAN_MOTION_DDOT":0.0},{"OBJECT_NAME":"ONEWEB-0318","OBJECT_ID":"2021-075AF","EPOCH":"2026-05-28T23:00:30.588768","MEAN_MOTION":13.18685613,"ECCENTRICITY":0.0002096,"INCLINATION":87.9166,"RA_OF_ASC_NODE":339.2839,"ARG_OF_PERICENTER":89.5998,"MEAN_ANOMALY":270.5374,"EPHEMERIS_TYPE":0,"CLASSIFICATION_TYPE":"U","NORAD_CAT_ID":49104,"ELEMENT_SET_NO":999,"REV_AT_EPOCH":23463,"BSTAR":0.00012607,"MEAN_MOTION_DOT":6.3e-07,"MEAN_MOTION_DDOT":0.0},{"OBJECT_NAME":"ONEWEB-0319","OBJECT_ID":"2021-075AG","EPOCH":"2026-05-29T00:53:58.094016","MEAN_MOTION":13.17648697,"ECCENTRICITY":0.0002353,"INCLINATION":87.9147,"RA_OF_ASC_NODE":9.6771,"ARG_OF_PERICENTER":84.2776,"MEAN_ANOMALY":275.8624,"EPHEMERIS_TYPE":0,"CLASSIFICATION_TYPE":"U","NORAD_CAT_ID":49105,"ELEMENT_SET_NO":999,"REV_AT_EPOCH":23108,"BSTAR":-0.00058431,"MEAN_MOTION_DOT":-2.14e-06,"MEAN_MOTION_DDOT":0.0},{"OBJECT_NAME":"ONEWEB-0323","OBJECT_ID":"2021-075AH","EPOCH":"2026-05-28T23:33:20.686752","MEAN_MOTION":13.12442374,"ECCENTRICITY":0.0002341,"INCLINATION":87.8957,"RA_OF_ASC_NODE":354.4687,"ARG_OF_PERICENTER":91.6519,"MEAN_ANOMALY":268.4878,"EPHEMERIS_TYPE":0,"CLASSIFICATION_TYPE":"U","NORAD_CAT_ID":49106,"ELEMENT_SET_NO":999,"REV_AT_EPOCH":23203,"BSTAR":-0.0010343,"MEAN_MOTION_DOT":-3.59e-06,"MEAN_MOTION_DDOT":0.0},{"OBJECT_NAME":"ONEWEB-0329","OBJECT_ID":"2021-075AJ","EPOCH":"2026-05-29T01:06:07.208064","MEAN_MOTION":13.17651011,"ECCENTRICITY":0.0001861,"INCLINATION":87.9149,"RA_OF_ASC_NODE":9.6758,"ARG_OF_PERICENTER":89.8149,"MEAN_ANOMALY":270.3196,"EPHEMERIS_TYPE":0,"CLASSIFICATION_TYPE":"U","NORAD_CAT_ID":49107,"ELEMENT_SET_NO":999,"REV_AT_EPOCH":23106,"BSTAR":0.00024258,"MEAN_MOTION_DOT":1.07e-06,"MEAN_MOTION_DDOT":0.0},{"OBJECT_NAME":"ONEWEB-0330","OBJECT_ID":"2021-075AK","EPOCH":"2026-05-28T23:51:01.639008","MEAN_MOTION":13.17648555,"ECCENTRICITY":0.0001747,"INCLINATION":87.9154,"RA_OF_ASC_NODE":9.7064,"ARG_OF_PERICENTER":93.589,"MEAN_ANOMALY":266.5442,"EPHEMERIS_TYPE":0,"CLASSIFICATION_TYPE":"U","NORAD_CAT_ID":49108,"ELEMENT_SET_NO":999,"REV_AT_EPOCH":23109,"BSTAR":0.00062322,"MEAN_MOTION_DOT":2.55e-06,"MEAN_MOTION_DDOT":0.0},{"OBJECT_NAME":"ONEWEB-0292","OBJECT_ID":"2021-083A","EPOCH":"2026-05-28T23:15:03.763584","MEAN_MOTION":13.13468595,"ECCENTRICITY":0.0001978,"INCLINATION":87.8931,"RA_OF_ASC_NODE":324.0687,"ARG_OF_PERICENTER":91.4979,"MEAN_ANOMALY":268.6377,"EPHEMERIS_TYPE":0,"CLASSIFICATION_TYPE":"U","NORAD_CAT_ID":49186,"ELEMENT_SET_NO":999,"REV_AT_EPOCH":22840,"BSTAR":-0.00070619,"MEAN_MOTION_DOT":-2.45e-06,"MEAN_MOTION_DDOT":0.0},{"OBJECT_NAME":"ONEWEB-0303","OBJECT_ID":"2021-083B","EPOCH":"2026-05-28T22:55:39.515808","MEAN_MOTION":13.18685846,"ECCENTRICITY":0.0001991,"INCLINATION":87.9161,"RA_OF_ASC_NODE":339.2844,"ARG_OF_PERICENTER":90.2067,"MEAN_ANOMALY":269.9293,"EPHEMERIS_TYPE":0,"CLASSIFICATION_TYPE":"U","NORAD_CAT_ID":49187,"ELEMENT_SET_NO":999,"REV_AT_EPOCH":22744,"BSTAR":0.00013742,"MEAN_MOTION_DOT":6.7e-07,"MEAN_MOTION_DDOT":0.0},{"OBJECT_NAME":"ONEWEB-0306","OBJECT_ID":"2021-083C","EPOCH":"2026-05-29T00:30:21.042432","MEAN_MOTION":13.18685937,"ECCENTRICITY":0.0001613,"INCLINATION":87.9168,"RA_OF_ASC_NODE":339.258,"ARG_OF_PERICENTER":90.6084,"MEAN_ANOMALY":269.5233,"EPHEMERIS_TYPE":0,"CLASSIFICATION_TYPE":"U","NORAD_CAT_ID":49188,"ELEMENT_SET_NO":999,"REV_AT_EPOCH":22749,"BSTAR":9.4869e-05,"MEAN_MOTION_DOT":5e-07,"MEAN_MOTION_DDOT":0.0},{"OBJECT_NAME":"ONEWEB-0307","OBJECT_ID":"2021-083D","EPOCH":"2026-05-28T23:06:32.607360","MEAN_MOTION":13.13468805,"ECCENTRICITY":0.0001903,"INCLINATION":87.8942,"RA_OF_ASC_NODE":324.0653,"ARG_OF_PERICENTER":93.8573,"MEAN_ANOMALY":266.2774,"EPHEMERIS_TYPE":0,"CLASSIFICATION_TYPE":"U","NORAD_CAT_ID":49189,"ELEMENT_SET_NO":999,"REV_AT_EPOCH":22840,"BSTAR":-0.00047179,"MEAN_MOTION_DOT":-1.6e-06,"MEAN_MOTION_DDOT":0.0},{"OBJECT_NAME":"ONEWEB-0320","OBJECT_ID":"2021-083E","EPOCH":"2026-05-28T23:10:12.912672","MEAN_MOTION":13.1868691,"ECCENTRICITY":0.0001759,"INCLINATION":87.9156,"RA_OF_ASC_NODE":339.2892,"ARG_OF_PERICENTER":88.8984,"MEAN_ANOMALY":271.235,"EPHEMERIS_TYPE":0,"CLASSIFICATION_TYPE":"U","NORAD_CAT_ID":49190,"ELEMENT_SET_NO":999,"REV_AT_EPOCH":22744,"BSTAR":9.5483e-05,"MEAN_MOTION_DOT":5.1e-07,"MEAN_MOTION_DDOT":0.0}]